From: horizons@ssd.jpl.nasa.gov (Horizons Ephemeris System)
Subject: [Horizons] SMALL BODY #C(500@10)_T(Leonard (P/2017 Y3)) (1/1)
Date: February 14, 2021 at 6:45:44 PM PST

Automated mail xmit by MAIL_REQUEST, PID= 7423 Sun Feb 14 18:45:44 2021
++++++++++++++++++++++++++++++++ (part 1 of 1)  +++++++++++++++++++++++++++++++
*******************************************************************************
JPL/HORIZONS                 Leonard (P/2017 Y3)           2021-Feb-14 18:45:44
Rec #:90004358 (+COV) Soln.date: 2020-Aug-24_11:21:03     # obs: 93 (2017-2018)

IAU76/J2000 helio. ecliptic osc. elements (au, days, deg., period=Julian yrs):

 EPOCH=  2458169.5 ! 2018-Feb-20.0000000 (TDB)    RMSW= n.a.
  EC= .8707108805446619   QR= 1.275380854106364   TP= 2458160.7598697483
  OM= 153.8739130206296   W= 67.52878618074084    IN= 27.58565183161743
  A= 9.864564469765259    MA= .2780386079862066   ADIST= 18.45374808542416
  PER= 30.983115612195    N= .031811723           ANGMOM= .026570806
  DAN= 1.79011            DDN= 3.57596            L= 218.8565275
  B= 25.3352287           MOID= .49109101         TP= 2018-Feb-11.2598697483

Comet physical (GM= km^3/s^2; RAD= km):
  GM= n.a.                RAD= n.a.
  M1=  16.5     M2=  18.6     k1=  11.    k2=  5.      PHCOF=  .030

COMET comments 
1: soln ref.= JPL#8, data arc: 2017-12-26 to 2018-09-17
2: k1=11., k2=5., phase coef.=0.03;
*******************************************************************************


*******************************************************************************
Ephemeris / MAIL_REQUEST Sun Feb 14 18:45:44 2021 Pasadena, USA  / Horizons
*******************************************************************************
Target body name: Leonard (P/2017 Y3)             {source: JPL#8}
Center body name: Sun (10)                        {source: DE431}
Center-site name: BODY CENTER
*******************************************************************************
Start time      : A.D. 1990-Jan-01 00:00:00.0000 TDB
Stop  time      : A.D. 2020-Dec-31 00:00:00.0000 TDB
Step-size       : 200 steps
*******************************************************************************
Center geodetic : 0.00000000,0.00000000,0.0000000 {E-lon(deg),Lat(deg),Alt(km)}
Center cylindric: 0.00000000,0.00000000,0.0000000 {E-lon(deg),Dxy(km),Dz(km)}
Center radii    : 696000.0 x 696000.0 x 696000.0 k{Equator, meridian, pole}    
Small perturbers: Yes                             {source: SB431-N16}
Output units    : AU-D
Output type     : GEOMETRIC cartesian states
Output format   : 6 (LT, range, and range-rate)
Reference frame : Ecliptic of J2000.0
*******************************************************************************
Initial IAU76/J2000 heliocentric ecliptic osculating elements (au, days, deg.):
 EPOCH=  2458169.5 ! 2018-Feb-20.0000000 (TDB)    RMSW= n.a.                  
  EC= .8707108805446619   QR= 1.275380854106364   TP= 2458160.7598697483      
  OM= 153.8739130206296   W= 67.52878618074084    IN= 27.58565183161743       
 Equivalent ICRF heliocentric equatorial cartesian coordinates (au, au/d):
  X=-7.690825649368721E-01  Y=-1.007187063222411E+00  Z= 1.900025207704740E-01
 VX= 1.521206288598153E-02 VY=-1.388641139498732E-02 VZ=-2.759864186037622E-03
Comet physical (GM= km^3/s^2; RAD= km):                                        
  GM= n.a.                RAD= n.a.                                           
  M1=  16.5     M2=  18.6     k1=  11.    k2=  5.      PHCOF=  .030           
*******************************************************************************
           JDTDB,            Calendar Date (TDB),                     LT,                     RG,                     RR,
**************************************************************************************************************************
$$SOE
2459214.500000000, A.D. 2020-Dec-31 00:00:00.0000,  5.095055862361429E-02,  8.821815757433045E+00,  5.286958315592967E-03,
